{"type": "FeatureCollection", "features": [ {"type": "Feature", "properties": {"norad_id": 33799, "name": "COSMOS 2251 DEB", "group": "cosmos-2251-debris", "lat": 38.70856182438621, "lon": -135.0386416864652, "alt_km": 611.6594476453793, "timestamp": "2025-12-24T16:52:41.929927+00:00", "meta": {"OBJECT_NAME": "COSMOS 2251 DEB", "OBJECT_ID": "1993-036AQ", "EPOCH": "2025-12-24T05:11:49.191648", "MEAN_MOTION": 14.79784327, "ECCENTRICITY": 0.00222344, "INCLINATION": 74.0314, "RA_OF_ASC_NODE": 59.1858, "ARG_OF_PERICENTER": 125.6764, "MEAN_ANOMALY": 301.7984, "EPHEMERIS_TYPE": 0, "CLASSIFICATION_TYPE": "U", "NORAD_CAT_ID": 33799, "ELEMENT_SET_NO": 999, "REV_AT_EPOCH": 88981, "BSTAR": 0.0013959747, "MEAN_MOTION_DOT": 0.00010534, "MEAN_MOTION_DDOT": 0}, "tle": {"line1": "1 33799U 93036AQ  25358.21654157  .00010534  00000+0  13960-2 0  9999", "line2": "2 33799  74.0314  59.1858 0022234 125.6764 301.7984 14.79784327889810"}}, "geometry": {"type": "Point", "coordinates": [-135.0386416864652, 38.70856182438621]}}, {"type": "Feature", "properties": {"norad_id": 33805, "name": "COSMOS 2251 DEB", "group": "cosmos-2251-debris", "lat": 51.30617900570282, "lon": -50.48131159252299, "alt_km": 673.3648522295098, "timestamp": "2025-12-24T16:52:41.929940+00:00", "meta": {"OBJECT_NAME": "COSMOS 2251 DEB", "OBJECT_ID": "1993-036AW", "EPOCH": "2025-12-24T05:06:07.521120", "MEAN_MOTION": 14.57880108, "ECCENTRICITY": 0.00599122, "INCLINATION": 74.0313, "RA_OF_ASC_NODE": 289.5054, "ARG_OF_PERICENTER": 115.1319, "MEAN_ANOMALY": 245.6078, "EPHEMERIS_TYPE": 0, "CLASSIFICATION_TYPE": "U", "NORAD_CAT_ID": 33805, "ELEMENT_SET_NO": 999, "REV_AT_EPOCH": 89394, "BSTAR": 0.00023240654, "MEAN_MOTION_DOT": 1.061e-05, "MEAN_MOTION_DDOT": 0}, "tle": {"line1": "1 33805U 93036AW  25358.21258705  .00001061  00000+0  23241-3 0  9995", "line2": "2 33805  74.0313 289.5054 0059912 115.1319 245.6078 14.57880108893946"}}, "geometry": {"type": "Point", "coordinates": [-50.48131159252299, 51.30617900570282]}}, {"type": "Feature", "properties": {"norad_id": 33811, "name": "COSMOS 2251 DEB", "group": "cosmos-2251-debris", "lat": 9.153814072948903, "lon": 95.16032967329133, "alt_km": 572.3589979261287, "timestamp": "2025-12-24T16:52:41.929953+00:00", "meta": {"OBJECT_NAME": "COSMOS 2251 DEB", "OBJECT_ID": "1993-036BC", "EPOCH": "2025-12-24T05:29:02.023296", "MEAN_MOTION": 15.05597731, "ECCENTRICITY": 0.00309448, "INCLINATION": 73.8382, "RA_OF_ASC_NODE": 278.8234, "ARG_OF_PERICENTER": 357.3037, "MEAN_ANOMALY": 120.7708, "EPHEMERIS_TYPE": 0, "CLASSIFICATION_TYPE": "U", "NORAD_CAT_ID": 33811, "ELEMENT_SET_NO": 999, "REV_AT_EPOCH": 90191, "BSTAR": 0.0012038483, "MEAN_MOTION_DOT": 0.00017549, "MEAN_MOTION_DDOT": 0}, "tle": {"line1": "1 33811U 93036BC  25358.22849564  .00017549  00000+0  12038-2 0  9991", "line2": "2 33811  73.8382 278.8234 0030944 357.3037 120.7708 15.05597731901919"}}, "geometry": {"type": "Point", "coordinates": [95.16032967329133, 9.153814072948903]}}, {"type": "Feature", "properties": {"norad_id": 33815, "name": "COSMOS 2251 DEB", "group": "cosmos-2251-debris", "lat": 49.384011484687406, "lon": -48.21681646764775, "alt_km": 499.1044854612419, "timestamp": "2025-12-24T16:52:41.929965+00:00", "meta": {"OBJECT_NAME": "COSMOS 2251 DEB", "OBJECT_ID": "1993-036BG", "EPOCH": "2025-12-23T12:09:09.431424", "MEAN_MOTION": 15.20902163, "ECCENTRICITY": 0.00029334, "INCLINATION": 73.9518, "RA_OF_ASC_NODE": 153.9206, "ARG_OF_PERICENTER": 325.2276, "MEAN_ANOMALY": 91.1426, "EPHEMERIS_TYPE": 0, "CLASSIFICATION_TYPE": "U", "NORAD_CAT_ID": 33815, "ELEMENT_SET_NO": 999, "REV_AT_EPOCH": 88534, "BSTAR": 0.0074914907, "MEAN_MOTION_DOT": 0.00169618, "MEAN_MOTION_DDOT": 0}, "tle": {"line1": "1 33815U 93036BG  25357.50635916  .00169618  00000+0  74915-2 0  9996", "line2": "2 33815  73.9518 153.9206 0002933 325.2276  91.1426 15.20902163885345"}}, "geometry": {"type": "Point", "coordinates": [-48.21681646764775, 49.384011484687406]}}, {"type": "Feature", "properties": {"norad_id": 33816, "name": "COSMOS 2251 DEB", "group": "cosmos-2251-debris", "lat": -2.393730531617067, "lon": -94.18809847428571, "alt_km": 944.0709215051993, "timestamp": "2025-12-24T16:52:41.929977+00:00", "meta": {"OBJECT_NAME": "COSMOS 2251 DEB", "OBJECT_ID": "1993-036BH", "EPOCH": "2025-12-23T15:42:08.286048", "MEAN_MOTION": 13.81795004, "ECCENTRICITY": 0.02641804, "INCLINATION": 73.8952, "RA_OF_ASC_NODE": 86.8973, "ARG_OF_PERICENTER": 97.6669, "MEAN_ANOMALY": 265.4539, "EPHEMERIS_TYPE": 0, "CLASSIFICATION_TYPE": "U", "NORAD_CAT_ID": 33816, "ELEMENT_SET_NO": 999, "REV_AT_EPOCH": 84824, "BSTAR": 0.00033497003, "MEAN_MOTION_DOT": 4.46e-06, "MEAN_MOTION_DDOT": 0}, "tle": {"line1": "1 33816U 93036BH  25357.65426257  .00000446  00000+0  33497-3 0  9993", "line2": "2 33816  73.8952  86.8973 0264180  97.6669 265.4539 13.81795004848240"}}, "geometry": {"type": "Point", "coordinates": [-94.18809847428571, -2.393730531617067]}}, {"type": "Feature", "properties": {"norad_id": 33818, "name": "COSMOS 2251 DEB", "group": "cosmos-2251-debris", "lat": 74.06491213215372, "lon": -129.80362600715412, "alt_km": 504.413652655021, "timestamp": "2025-12-24T16:52:41.929988+00:00", "meta": {"OBJECT_NAME": "COSMOS 2251 DEB", "OBJECT_ID": "1993-036BK", "EPOCH": "2025-12-24T04:33:57.969792", "MEAN_MOTION": 15.13418691, "ECCENTRICITY": 0.00243464, "INCLINATION": 74.0793, "RA_OF_ASC_NODE": 142.5597, "ARG_OF_PERICENTER": 125.8698, "MEAN_ANOMALY": 50.0643, "EPHEMERIS_TYPE": 0, "CLASSIFICATION_TYPE": "U", "NORAD_CAT_ID": 33818, "ELEMENT_SET_NO": 999, "REV_AT_EPOCH": 90035, "BSTAR": 0.0028648853, "MEAN_MOTION_DOT": 0.00051885, "MEAN_MOTION_DDOT": 0}, "tle": {"line1": "1 33818U 93036BK  25358.19025428  .00051885  00000+0  28649-2 0  9995", "line2": "2 33818  74.0793 142.5597 0024346 125.8698  50.0643 15.13418691900350"}}, "geometry": {"type": "Point", "coordinates": [-129.80362600715412, 74.06491213215372]}}, {"type": "Feature", "properties": {"norad_id": 33819, "name": "COSMOS 2251 DEB", "group": "cosmos-2251-debris", "lat": -19.761866970563375, "lon": -177.64191005023383, "alt_km": 762.8326875520379, "timestamp": "2025-12-24T16:52:41.930000+00:00", "meta": {"OBJECT_NAME": "COSMOS 2251 DEB", "OBJECT_ID": "1993-036BL", "EPOCH": "2025-12-24T00:45:56.971296", "MEAN_MOTION": 14.32258021, "ECCENTRICITY": 0.00894998, "INCLINATION": 74.1773, "RA_OF_ASC_NODE": 189.4198, "ARG_OF_PERICENTER": 47.3369, "MEAN_ANOMALY": 72.9499, "EPHEMERIS_TYPE": 0, "CLASSIFICATION_TYPE": "U", "NORAD_CAT_ID": 33819, "ELEMENT_SET_NO": 999, "REV_AT_EPOCH": 87657, "BSTAR": 0.00050056285, "MEAN_MOTION_DOT": 1.387e-05, "MEAN_MOTION_DDOT": 0}, "tle": {"line1": "1 33819U 93036BL  25358.03190939  .00001387  00000+0  50056-3 0  9999", "line2": "2 33819  74.1773 189.4198 0089499  47.3369  72.9499 14.32258021876577"}}, "geometry": {"type": "Point", "coordinates": [-177.64191005023383, -19.761866970563375]}}, {"type": "Feature", "properties": {"norad_id": 33821, "name": "COSMOS 2251 DEB", "group": "cosmos-2251-debris", "lat": 70.00781382814742, "lon": 169.45060445287356, "alt_km": 468.2240192094805, "timestamp": "2025-12-24T16:52:41.930011+00:00", "meta": {"OBJECT_NAME": "COSMOS 2251 DEB", "OBJECT_ID": "1993-036BN", "EPOCH": "2025-12-24T02:22:37.030080", "MEAN_MOTION": 15.25999925, "ECCENTRICITY": 0.00495876, "INCLINATION": 74.0305, "RA_OF_ASC_NODE": 118.8107, "ARG_OF_PERICENTER": 148.3713, "MEAN_ANOMALY": 212.0485, "EPHEMERIS_TYPE": 0, "CLASSIFICATION_TYPE": "U", "NORAD_CAT_ID": 33821, "ELEMENT_SET_NO": 999, "REV_AT_EPOCH": 75174, "BSTAR": 0.0012830465, "MEAN_MOTION_DOT": 0.00034308, "MEAN_MOTION_DDOT": 0}, "tle": {"line1": "1 33821U 93036BN  25358.09903970  .00034308  00000+0  12830-2 0  9991", "line2": "2 33821  74.0305 118.8107 0049587 148.3713 212.0485 15.25999925751746"}}, "geometry": {"type": "Point", "coordinates": [169.45060445287356, 70.00781382814742]}}, {"type": "Feature", "properties": {"norad_id": 33822, "name": "COSMOS 2251 DEB", "group": "cosmos-2251-debris", "lat": 58.74142960301976, "lon": -159.36615108846985, "alt_km": 940.8209861172836, "timestamp": "2025-12-24T16:52:41.930023+00:00", "meta": {"OBJECT_NAME": "COSMOS 2251 DEB", "OBJECT_ID": "1993-036BP", "EPOCH": "2025-12-22T22:40:58.934784", "MEAN_MOTION": 14.13119133, "ECCENTRICITY": 0.0152769, "INCLINATION": 74.0676, "RA_OF_ASC_NODE": 175.6652, "ARG_OF_PERICENTER": 219.4908, "MEAN_ANOMALY": 263.5608, "EPHEMERIS_TYPE": 0, "CLASSIFICATION_TYPE": "U", "NORAD_CAT_ID": 33822, "ELEMENT_SET_NO": 999, "REV_AT_EPOCH": 86198, "BSTAR": 0.0014147, "MEAN_MOTION_DOT": 2.93e-05, "MEAN_MOTION_DDOT": 0}, "tle": {"line1": "1 33822U 93036BP  25356.94512656  .00002930  00000+0  14147-2 0  9990", "line2": "2 33822  74.0676 175.6652 0152769 219.4908 263.5608 14.13119133861984"}}, "geometry": {"type": "Point", "coordinates": [-159.36615108846985, 58.74142960301976]}}, {"type": "Feature", "properties": {"norad_id": 33823, "name": "COSMOS 2251 DEB", "group": "cosmos-2251-debris", "lat": 0.13017561576518769, "lon": 128.4016477336707, "alt_km": 945.7279849206352, "timestamp": "2025-12-24T16:52:41.930034+00:00", "meta": {"OBJECT_NAME": "COSMOS 2251 DEB", "OBJECT_ID": "1993-036BQ", "EPOCH": "2025-12-23T10:15:53.723232", "MEAN_MOTION": 13.98976236, "ECCENTRICITY": 0.02094531, "INCLINATION": 73.8097, "RA_OF_ASC_NODE": 130.5986, "ARG_OF_PERICENTER": 254.049, "MEAN_ANOMALY": 162.2506, "EPHEMERIS_TYPE": 0, "CLASSIFICATION_TYPE": "U", "NORAD_CAT_ID": 33823, "ELEMENT_SET_NO": 999, "REV_AT_EPOCH": 85759, "BSTAR": 0.00075408104, "MEAN_MOTION_DOT": 1.288e-05, "MEAN_MOTION_DDOT": 0}, "tle": {"line1": "1 33823U 93036BQ  25357.42770513  .00001288  00000+0  75408-3 0  9996", "line2": "2 33823  73.8097 130.5986 0209453 254.0490 162.2506 13.98976236857594"}}, "geometry": {"type": "Point", "coordinates": [128.4016477336707, 0.13017561576518769]}}]}